{
  "norad_id": 65411,
  "name": "STARLINK-34983",
  "history": [
    {
      "epoch": "2026-03-28T20:52:50.092608Z",
      "apogee_km": 476.1085456886458,
      "perigee_km": 474.21073078358495,
      "latitude_deg": -3.1309296646409884e-05,
      "longitude_deg": 3.568486557765529,
      "height_km": 476.0445007959637,
      "semi_major_axis_km": 6853.296638236115,
      "eccentricity": 0.00013846,
      "inclination_deg": 53.1612,
      "raan_deg": 143.0615,
      "arg_perigee_deg": 89.2032,
      "mean_anomaly_deg": 270.9127,
      "mean_motion_rev_day": 15.30218565
    }
  ]
}