{"fetched_at":"2026-03-30T06:02:59Z","count":15439,"tles":[{"name":"STARLINK-34983","line1":"1 65411U 25192H   26087.87002422  .00018303  00000+0  62821-3 0  9990","line2":"2 65411  53.1612 143.0615 0001384  89.2032 270.9127 15.30218565 32321","category":"Starlink"}]}